[{"OBJECT_NAME":"STARLINK-34235","OBJECT_ID":"2025-147F","EPOCH":"2026-03-09T18:25:19.566912","MEAN_MOTION":15.30209391,"ECCENTRICITY":0.00011957,"INCLINATION":53.1592,"RA_OF_ASC_NODE":242.3932,"ARG_OF_PERICENTER":107.8443,"MEAN_ANOMALY":252.2689,"EPHEMERIS_TYPE":0,"CLASSIFICATION_TYPE":"U","NORAD_CAT_ID":64760,"ELEMENT_SET_NO":999,"REV_AT_EPOCH":3880,"BSTAR":0.00051145379,"MEAN_MOTION_DOT":0.00014823,"MEAN_MOTION_DDOT":0},{"OBJECT_NAME":"TITAN 4B R\/B","OBJECT_ID":"2005-016B","EPOCH":"2026-03-09T20:27:57.848832","MEAN_MOTION":15.42682045,"ECCENTRICITY":0.00616552,"INCLINATION":56.9964,"RA_OF_ASC_NODE":245.9411,"ARG_OF_PERICENTER":20.2929,"MEAN_ANOMALY":340.0555,"EPHEMERIS_TYPE":0,"CLASSIFICATION_TYPE":"U","NORAD_CAT_ID":28647,"ELEMENT_SET_NO":999,"REV_AT_EPOCH":37707,"BSTAR":0.00046483736,"MEAN_MOTION_DOT":0.0002164,"MEAN_MOTION_DDOT":0}]
